{
  "type": "FeatureCollection",
  "features": [
    {
      "type": "Feature",
      "properties": {
        "norad_id": 36744,
        "name": "COMS 1",
        "group": "weather",
        "lat": -3.621929692939234,
        "lon": 21.19013314415794,
        "alt_km": 35787.70687054302,
        "timestamp": "2025-12-10T11:33:53.033990+00:00",
        "meta_object_name": "COMS 1",
        "meta_object_id": "2010-032A",
        "meta_epoch": "2025-12-09T14:54:38.529792",
        "meta_mean_motion": 1.00270977,
        "meta_eccentricity": 0.0001129,
        "meta_inclination": 4.3339,
        "meta_ra_of_asc_node": 78.0311,
        "meta_arg_of_pericenter": 203.6251,
        "meta_mean_anomaly": 148.7892,
        "meta_ephemeris_type": 0,
        "meta_classification_type": "U",
        "meta_norad_cat_id": 36744,
        "meta_element_set_no": 999,
        "meta_rev_at_epoch": 4918,
        "meta_bstar": 0,
        "meta_mean_motion_dot": -3.42e-06,
        "meta_mean_motion_ddot": 0,
        "tle_line1": "1 36744U 10032A   25343.62127928 -.00000342  00000+0  00000+0 0  9992",
        "tle_line2": "2 36744   4.3339  78.0311 0001129 203.6251 148.7892  1.00270977 49184"
      },
      "geometry": {
        "type": "Point",
        "coordinates": [
          21.19013314415794,
          -3.621929692939234
        ]
      }
    },
    {
      "type": "Feature",
      "properties": {
        "norad_id": 37214,
        "name": "FENGYUN 3B",
        "group": "weather",
        "lat": 60.15490819841177,
        "lon": 8.42558608712466,
        "alt_km": 828.4800244022781,
        "timestamp": "2025-12-10T11:33:53.034002+00:00",
        "meta_object_name": "FENGYUN 3B",
        "meta_object_id": "2010-059A",
        "meta_epoch": "2025-12-10T04:51:43.159968",
        "meta_mean_motion": 14.14788312,
        "meta_eccentricity": 0.0022162,
        "meta_inclination": 98.9905,
        "meta_ra_of_asc_node": 24.1618,
        "meta_arg_of_pericenter": 4.9564,
        "meta_mean_anomaly": 74.6509,
        "meta_ephemeris_type": 0,
        "meta_classification_type": "U",
        "meta_norad_cat_id": 37214,
        "meta_element_set_no": 999,
        "meta_rev_at_epoch": 78070,
        "meta_bstar": 0.00013616,
        "meta_mean_motion_dot": 2.18e-06,
        "meta_mean_motion_ddot": 0,
        "tle_line1": "1 37214U 10059A   25344.20258287  .00000218  00000+0  13616-3 0  9994",
        "tle_line2": "2 37214  98.9905  24.1618 0022162   4.9564  74.6509 14.14788312780704"
      },
      "geometry": {
        "type": "Point",
        "coordinates": [
          8.42558608712466,
          60.15490819841177
        ]
      }
    },
    {
      "type": "Feature",
      "properties": {
        "norad_id": 37849,
        "name": "SUOMI NPP",
        "group": "weather",
        "lat": -43.21987255933158,
        "lon": 93.49592099562557,
        "alt_km": 833.8747366780672,
        "timestamp": "2025-12-10T11:33:53.034034+00:00",
        "meta_object_name": "SUOMI NPP",
        "meta_object_id": "2011-061A",
        "meta_epoch": "2025-12-10T03:44:50.236800",
        "meta_mean_motion": 14.19512976,
        "meta_eccentricity": 0.0002162,
        "meta_inclination": 98.777,
        "meta_ra_of_asc_node": 281.521,
        "meta_arg_of_pericenter": 124.7414,
        "meta_mean_anomaly": 235.3966,
        "meta_ephemeris_type": 0,
        "meta_classification_type": "U",
        "meta_norad_cat_id": 37849,
        "meta_element_set_no": 999,
        "meta_rev_at_epoch": 73162,
        "meta_bstar": 0.00010766,
        "meta_mean_motion_dot": 1.83e-06,
        "meta_mean_motion_ddot": 0,
        "tle_line1": "1 37849U 11061A   25344.15613700  .00000183  00000+0  10766-3 0  9995",
        "tle_line2": "2 37849  98.7770 281.5210 0002162 124.7414 235.3966 14.19512976731622"
      },
      "geometry": {
        "type": "Point",
        "coordinates": [
          93.49592099562557,
          -43.21987255933158
        ]
      }
    },
    {
      "type": "Feature",
      "properties": {
        "norad_id": 38552,
        "name": "METEOSAT-10 (MSG-3)",
        "group": "weather",
        "lat": -0.8484776104843814,
        "lon": -106.95415398624827,
        "alt_km": 35783.22905236301,
        "timestamp": "2025-12-10T11:33:53.034047+00:00",
        "meta_object_name": "METEOSAT-10 (MSG-3)",
        "meta_object_id": "2012-035B",
        "meta_epoch": "2025-12-09T20:25:24.030912",
        "meta_mean_motion": 1.00274082,
        "meta_eccentricity": 8.52e-05,
        "meta_inclination": 4.2224,
        "meta_ra_of_asc_node": 61.7294,
        "meta_arg_of_pericenter": 241.8219,
        "meta_mean_anomaly": 81.7823,
        "meta_ephemeris_type": 0,
        "meta_classification_type": "U",
        "meta_norad_cat_id": 38552,
        "meta_element_set_no": 999,
        "meta_rev_at_epoch": 4895,
        "meta_bstar": 0,
        "meta_mean_motion_dot": -4e-08,
        "meta_mean_motion_ddot": 0,
        "tle_line1": "1 38552U 12035B   25343.85097258 -.00000004  00000+0  00000+0 0  9998",
        "tle_line2": "2 38552   4.2224  61.7294 0000852 241.8219  81.7823  1.00274082 48959"
      },
      "geometry": {
        "type": "Point",
        "coordinates": [
          -106.95415398624827,
          -0.8484776104843814
        ]
      }
    },
    {
      "type": "Feature",
      "properties": {
        "norad_id": 38771,
        "name": "METOP-B",
        "group": "weather",
        "lat": 59.3947904782141,
        "lon": 19.51188665076972,
        "alt_km": 814.7501180294166,
        "timestamp": "2025-12-10T11:33:53.034058+00:00",
        "meta_object_name": "METOP-B",
        "meta_object_id": "2012-049A",
        "meta_epoch": "2025-12-10T02:50:01.527072",
        "meta_mean_motion": 14.21406806,
        "meta_eccentricity": 0.0002799,
        "meta_inclination": 98.6803,
        "meta_ra_of_asc_node": 34.1212,
        "meta_arg_of_pericenter": 149.8322,
        "meta_mean_anomaly": 210.3017,
        "meta_ephemeris_type": 0,
        "meta_classification_type": "U",
        "meta_norad_cat_id": 38771,
        "meta_element_set_no": 999,
        "meta_rev_at_epoch": 68640,
        "meta_bstar": 0.00011481,
        "meta_mean_motion_dot": 2.07e-06,
        "meta_mean_motion_ddot": 0,
        "tle_line1": "1 38771U 12049A   25344.11807323  .00000207  00000+0  11481-3 0  9991",
        "tle_line2": "2 38771  98.6803  34.1212 0002799 149.8322 210.3017 14.21406806686401"
      },
      "geometry": {
        "type": "Point",
        "coordinates": [
          19.51188665076972,
          59.3947904782141
        ]
      }
    },
    {
      "type": "Feature",
      "properties": {
        "norad_id": 39216,
        "name": "INSAT-3D",
        "group": "weather",
        "lat": -1.2647057656336187,
        "lon": 22.491072785641904,
        "alt_km": 35791.33943878282,
        "timestamp": "2025-12-10T11:33:53.034070+00:00",
        "meta_object_name": "INSAT-3D",
        "meta_object_id": "2013-038B",
        "meta_epoch": "2025-12-09T21:02:13.005024",
        "meta_mean_motion": 1.0027109,
        "meta_eccentricity": 0.0001623,
        "meta_inclination": 1.4377,
        "meta_ra_of_asc_node": 85.0184,
        "meta_arg_of_pericenter": 162.9185,
        "meta_mean_anomaly": 276.0233,
        "meta_ephemeris_type": 0,
        "meta_classification_type": "U",
        "meta_norad_cat_id": 39216,
        "meta_element_set_no": 999,
        "meta_rev_at_epoch": 4518,
        "meta_bstar": 0,
        "meta_mean_motion_dot": -3.36e-06,
        "meta_mean_motion_ddot": 0,
        "tle_line1": "1 39216U 13038B   25343.87653941 -.00000336  00000+0  00000+0 0  9997",
        "tle_line2": "2 39216   1.4377  85.0184 0001623 162.9185 276.0233  1.00271090 45186"
      },
      "geometry": {
        "type": "Point",
        "coordinates": [
          22.491072785641904,
          -1.2647057656336187
        ]
      }
    },
    {
      "type": "Feature",
      "properties": {
        "norad_id": 39260,
        "name": "FENGYUN 3C",
        "group": "weather",
        "lat": -5.939047115910926,
        "lon": -36.83971486444955,
        "alt_km": 852.5608125416447,
        "timestamp": "2025-12-10T11:33:53.034081+00:00",
        "meta_object_name": "FENGYUN 3C",
        "meta_object_id": "2013-052A",
        "meta_epoch": "2025-12-10T04:48:29.268000",
        "meta_mean_motion": 14.15695025,
        "meta_eccentricity": 0.0014138,
        "meta_inclination": 98.476,
        "meta_ra_of_asc_node": 322.0037,
        "meta_arg_of_pericenter": 203.5602,
        "meta_mean_anomaly": 156.4926,
        "meta_ephemeris_type": 0,
        "meta_classification_type": "U",
        "meta_norad_cat_id": 39260,
        "meta_element_set_no": 999,
        "meta_rev_at_epoch": 63182,
        "meta_bstar": 0.00012239,
        "meta_mean_motion_dot": 1.99e-06,
        "meta_mean_motion_ddot": 0,
        "tle_line1": "1 39260U 13052A   25344.20033875  .00000199  00000+0  12239-3 0  9995",
        "tle_line2": "2 39260  98.4760 322.0037 0014138 203.5602 156.4926 14.15695025631829"
      },
      "geometry": {
        "type": "Point",
        "coordinates": [
          -36.83971486444955,
          -5.939047115910926
        ]
      }
    }
  ]
}